[{"OBJECT_NAME":"STARLINK-2249","OBJECT_ID":"2021-041AR","EPOCH":"2026-03-09T11:13:28.383168","MEAN_MOTION":15.06407403,"ECCENTRICITY":0.00011939,"INCLINATION":53.055,"RA_OF_ASC_NODE":142.8481,"ARG_OF_PERICENTER":85.929,"MEAN_ANOMALY":274.1835,"EPHEMERIS_TYPE":0,"CLASSIFICATION_TYPE":"U","NORAD_CAT_ID":48592,"ELEMENT_SET_NO":999,"REV_AT_EPOCH":26502,"BSTAR":3.0330581e-5,"MEAN_MOTION_DOT":1.71e-6,"MEAN_MOTION_DDOT":0},{"OBJECT_NAME":"UNKNOWN","OBJECT_ID":"","EPOCH":"2026-03-04T22:11:39.610464","MEAN_MOTION":14.49090755,"ECCENTRICITY":0.0282259,"INCLINATION":82.0644,"RA_OF_ASC_NODE":144.6703,"ARG_OF_PERICENTER":28.1067,"MEAN_ANOMALY":333.504,"EPHEMERIS_TYPE":0,"CLASSIFICATION_TYPE":"U","NORAD_CAT_ID":89172,"ELEMENT_SET_NO":999,"REV_AT_EPOCH":61378,"BSTAR":0.001137,"MEAN_MOTION_DOT":7.23e-5,"MEAN_MOTION_DDOT":0}]
